{"fetched_at":"2026-07-17T17:37:51.795Z","source":"https://celestrak.org/NORAD/elements/gp.php?GROUP=kuiper&FORMAT=JSON","constellation":"kuiper","records":[{"OBJECT_NAME":"KUIPER-00153","OBJECT_ID":"2025-217M","EPOCH":"2026-07-17T07:00:22.153248","CLASSIFICATION_TYPE":"U","MEAN_MOTION":14.79928352,"ECCENTRICITY":0.00006035,"INCLINATION":51.9019,"RA_OF_ASC_NODE":172.576,"ARG_OF_PERICENTER":75.3544,"MEAN_ANOMALY":284.7486,"EPHEMERIS_TYPE":0,"NORAD_CAT_ID":65773,"ELEMENT_SET_NO":999,"REV_AT_EPOCH":4431,"BSTAR":0.00018022363,"MEAN_MOTION_DOT":0.00001153,"MEAN_MOTION_DDOT":0},{"OBJECT_NAME":"KUIPER-00155","OBJECT_ID":"2025-217N","EPOCH":"2026-07-17T06:05:50.242272","CLASSIFICATION_TYPE":"U","MEAN_MOTION":14.79941097,"ECCENTRICITY":0.00008178,"INCLINATION":51.9026,"RA_OF_ASC_NODE":145.207,"ARG_OF_PERICENTER":74.1705,"MEAN_ANOMALY":285.9347,"EPHEMERIS_TYPE":0,"NORAD_CAT_ID":65774,"ELEMENT_SET_NO":999,"REV_AT_EPOCH":4469,"BSTAR":0.00023933757,"MEAN_MOTION_DOT":0.00001604,"MEAN_MOTION_DDOT":0},{"OBJECT_NAME":"KUIPER-00156","OBJECT_ID":"2025-217P","EPOCH":"2026-07-16T23:42:49.807008","CLASSIFICATION_TYPE":"U","MEAN_MOTION":14.79932973,"ECCENTRICITY":0.00007131,"INCLINATION":51.9021,"RA_OF_ASC_NODE":173.9023,"ARG_OF_PERICENTER":57.6963,"MEAN_ANOMALY":302.4068,"EPHEMERIS_TYPE":0,"NORAD_CAT_ID":65775,"ELEMENT_SET_NO":999,"REV_AT_EPOCH":4426,"BSTAR":0.00019711972,"MEAN_MOTION_DOT":0.00001282,"MEAN_MOTION_DDOT":0},{"OBJECT_NAME":"KUIPER-00163","OBJECT_ID":"2025-217R","EPOCH":"2026-07-17T05:38:44.323872","CLASSIFICATION_TYPE":"U","MEAN_MOTION":16.07784121,"ECCENTRICITY":0.00015445,"INCLINATION":51.8721,"RA_OF_ASC_NODE":106.8805,"ARG_OF_PERICENTER":166.8411,"MEAN_ANOMALY":193.2646,"EPHEMERIS_TYPE":0,"NORAD_CAT_ID":65777,"ELEMENT_SET_NO":999,"REV_AT_EPOCH":4520,"BSTAR":0.00064705847,"MEAN_MOTION_DOT":0.00541301,"MEAN_MOTION_DDOT":0.00015605535},{"OBJECT_NAME":"KUIPER-00165","OBJECT_ID":"2025-217S","EPOCH":"2026-07-16T23:27:13.251744","CLASSIFICATION_TYPE":"U","MEAN_MOTION":14.79926273,"ECCENTRICITY":0.00006424,"INCLINATION":51.8992,"RA_OF_ASC_NODE":183.8954,"ARG_OF_PERICENTER":79.6229,"MEAN_ANOMALY":280.4806,"EPHEMERIS_TYPE":0,"NORAD_CAT_ID":65778,"ELEMENT_SET_NO":999,"REV_AT_EPOCH":4412,"BSTAR":0.000038460404,"MEAN_MOTION_DOT":7.2e-7,"MEAN_MOTION_DDOT":0},{"OBJECT_NAME":"KUIPER-00166","OBJECT_ID":"2025-217T","EPOCH":"2026-07-16T22:57:59.806944","CLASSIFICATION_TYPE":"U","MEAN_MOTION":14.7997961,"ECCENTRICITY":0.0000625,"INCLINATION":51.9037,"RA_OF_ASC_NODE":171.5342,"ARG_OF_PERICENTER":303.7735,"MEAN_ANOMALY":56.3167,"EPHEMERIS_TYPE":0,"NORAD_CAT_ID":65779,"ELEMENT_SET_NO":999,"REV_AT_EPOCH":4429,"BSTAR":0.0009134091,"MEAN_MOTION_DOT":0.00006757,"MEAN_MOTION_DDOT":0},{"OBJECT_NAME":"KUIPER-00167","OBJECT_ID":"2025-217U","EPOCH":"2026-07-16T10:13:41.949408","CLASSIFICATION_TYPE":"U","MEAN_MOTION":14.79935965,"ECCENTRICITY":0.0000551,"INCLINATION":51.8949,"RA_OF_ASC_NODE":196.24,"ARG_OF_PERICENTER":63.954,"MEAN_ANOMALY":296.1479,"EPHEMERIS_TYPE":0,"NORAD_CAT_ID":65780,"ELEMENT_SET_NO":999,"REV_AT_EPOCH":4390,"BSTAR":0.00015048,"MEAN_MOTION_DOT":0.00000926,"MEAN_MOTION_DDOT":0},{"OBJECT_NAME":"KUIPER-00168","OBJECT_ID":"2025-217V","EPOCH":"2026-07-16T05:49:16.238784","CLASSIFICATION_TYPE":"U","MEAN_MOTION":14.79929483,"ECCENTRICITY":0.00006,"INCLINATION":51.9002,"RA_OF_ASC_NODE":179.6484,"ARG_OF_PERICENTER":62.841,"MEAN_ANOMALY":297.2614,"EPHEMERIS_TYPE":0,"NORAD_CAT_ID":65781,"ELEMENT_SET_NO":999,"REV_AT_EPOCH":4412,"BSTAR":0.00016969,"MEAN_MOTION_DOT":0.00001073,"MEAN_MOTION_DDOT":0},{"OBJECT_NAME":"KUIPER-00169","OBJECT_ID":"2025-217W","EPOCH":"2026-07-17T07:37:20.816256","CLASSIFICATION_TYPE":"U","MEAN_MOTION":14.79930593,"ECCENTRICITY":0.00005603,"INCLINATION":51.8997,"RA_OF_ASC_NODE":179.9038,"ARG_OF_PERICENTER":97.7946,"MEAN_ANOMALY":262.308,"EPHEMERIS_TYPE":0,"NORAD_CAT_ID":65782,"ELEMENT_SET_NO":999,"REV_AT_EPOCH":4421,"BSTAR":0.000011408255,"MEAN_MOTION_DOT":-0.00000134,"MEAN_MOTION_DDOT":0},{"OBJECT_NAME":"KUIPER-00170","OBJECT_ID":"2025-217X","EPOCH":"2026-07-17T05:52:21.855360","CLASSIFICATION_TYPE":"U","MEAN_MOTION":14.79930542,"ECCENTRICITY":0.00005497,"INCLINATION":51.8979,"RA_OF_ASC_NODE":185.183,"ARG_OF_PERICENTER":61.435,"MEAN_ANOMALY":298.6668,"EPHEMERIS_TYPE":0,"NORAD_CAT_ID":65783,"ELEMENT_SET_NO":999,"REV_AT_EPOCH":4413,"BSTAR":0.0001606326,"MEAN_MOTION_DOT":0.00001004,"MEAN_MOTION_DDOT":0},{"OBJECT_NAME":"KUIPER-00172","OBJECT_ID":"2025-217Z","EPOCH":"2026-07-16T08:26:44.678400","CLASSIFICATION_TYPE":"U","MEAN_MOTION":14.79938257,"ECCENTRICITY":0.0000885,"INCLINATION":51.8987,"RA_OF_ASC_NODE":171.6609,"ARG_OF_PERICENTER":86.7274,"MEAN_ANOMALY":273.3789,"EPHEMERIS_TYPE":0,"NORAD_CAT_ID":65785,"ELEMENT_SET_NO":999,"REV_AT_EPOCH":4424,"BSTAR":0.00019662,"MEAN_MOTION_DOT":0.00001278,"MEAN_MOTION_DDOT":0},{"OBJECT_NAME":"KUIPER-00173","OBJECT_ID":"2025-217AA","EPOCH":"2026-07-16T06:30:00.982080","CLASSIFICATION_TYPE":"U","MEAN_MOTION":14.79931938,"ECCENTRICITY":0.0000635,"INCLINATION":51.9004,"RA_OF_ASC_NODE":184.527,"ARG_OF_PERICENTER":72.8557,"MEAN_ANOMALY":287.2475,"EPHEMERIS_TYPE":0,"NORAD_CAT_ID":65786,"ELEMENT_SET_NO":999,"REV_AT_EPOCH":4405,"BSTAR":0.00034776,"MEAN_MOTION_DOT":0.00002431,"MEAN_MOTION_DDOT":0},{"OBJECT_NAME":"KUIPER-00174","OBJECT_ID":"2025-217AB","EPOCH":"2026-07-16T22:50:15.936576","CLASSIFICATION_TYPE":"U","MEAN_MOTION":14.79919717,"ECCENTRICITY":0.00006949,"INCLINATION":51.9005,"RA_OF_ASC_NODE":176.5667,"ARG_OF_PERICENTER":54.8034,"MEAN_ANOMALY":305.2994,"EPHEMERIS_TYPE":0,"NORAD_CAT_ID":65787,"ELEMENT_SET_NO":999,"REV_AT_EPOCH":4422,"BSTAR":0.00028157564,"MEAN_MOTION_DOT":0.00001925,"MEAN_MOTION_DDOT":0},{"OBJECT_NAME":"KUIPER-00176","OBJECT_ID":"2025-217AC","EPOCH":"2026-07-17T00:04:13.745568","CLASSIFICATION_TYPE":"U","MEAN_MOTION":14.7992829,"ECCENTRICITY":0.00004637,"INCLINATION":51.8991,"RA_OF_ASC_NODE":191.2726,"ARG_OF_PERICENTER":69.0881,"MEAN_ANOMALY":291.0131,"EPHEMERIS_TYPE":0,"NORAD_CAT_ID":65788,"ELEMENT_SET_NO":999,"REV_AT_EPOCH":4402,"BSTAR":0.00016310126,"MEAN_MOTION_DOT":0.00001022,"MEAN_MOTION_DDOT":0},{"OBJECT_NAME":"KUIPER-00101","OBJECT_ID":"2025-228A","EPOCH":"2026-07-17T05:13:19.216128","CLASSIFICATION_TYPE":"U","MEAN_MOTION":14.79935824,"ECCENTRICITY":0.00007018,"INCLINATION":51.8975,"RA_OF_ASC_NODE":147.7813,"ARG_OF_PERICENTER":78.6013,"MEAN_ANOMALY":281.5028,"EPHEMERIS_TYPE":0,"NORAD_CAT_ID":65947,"ELEMENT_SET_NO":999,"REV_AT_EPOCH":4241,"BSTAR":0.00022152102,"MEAN_MOTION_DOT":0.00001468,"MEAN_MOTION_DDOT":0},{"OBJECT_NAME":"KUIPER-00113","OBJECT_ID":"2025-228B","EPOCH":"2026-07-17T06:09:43.170624","CLASSIFICATION_TYPE":"U","MEAN_MOTION":14.79931289,"ECCENTRICITY":0.00008371,"INCLINATION":51.8992,"RA_OF_ASC_NODE":142.6284,"ARG_OF_PERICENTER":66.5136,"MEAN_ANOMALY":293.5914,"EPHEMERIS_TYPE":0,"NORAD_CAT_ID":65948,"ELEMENT_SET_NO":999,"REV_AT_EPOCH":4248,"BSTAR":0.000096727643,"MEAN_MOTION_DOT":0.00000516,"MEAN_MOTION_DDOT":0}]}
