KUIPER-00153            
1 65773U 25217M   26198.29192307  .00001153  00000+0  18022-3 0  9999
2 65773  51.9019 172.5760 0000603  75.3544 284.7486 14.79928352 44311
KUIPER-00155            
1 65774U 25217N   26198.25405373  .00001604  00000+0  23934-3 0  9995
2 65774  51.9026 145.2070 0000817  74.1705 285.9347 14.79941097 44695
KUIPER-00156            
1 65775U 25217P   26197.98807647  .00001282  00000+0  19712-3 0  9996
2 65775  51.9021 173.9023 0000713  57.6963 302.4068 14.79932973 44265
KUIPER-00163            
1 65777U 25217R   26198.23523523  .00541301  15606-3  64706-3 0  9991
2 65777  51.8721 106.8805 0001544 166.8411 193.2646 16.07784121 45206
KUIPER-00165            
1 65778U 25217S   26197.97723671  .00000072  00000+0  38460-4 0  9990
2 65778  51.8992 183.8954 0000642  79.6229 280.4806 14.79926273 44123
KUIPER-00166            
1 65779U 25217T   26197.95694221  .00006757  00000+0  91341-3 0  9999
2 65779  51.9037 171.5342 0000625 303.7735  56.3167 14.79979610 44295
KUIPER-00167            
1 65780U 25217U   26197.42617997  .00000926  00000+0  15048-3 0  9990
2 65780  51.8949 196.2400 0000551  63.9540 296.1479 14.79935965 43906
KUIPER-00168            
1 65781U 25217V   26197.24254906  .00001073  00000+0  16969-3 0  9995
2 65781  51.9002 179.6484 0000600  62.8410 297.2614 14.79929483 44120
KUIPER-00169            
1 65782U 25217W   26198.31760204 -.00000134  00000+0  11408-4 0  9990
2 65782  51.8997 179.9038 0000560  97.7946 262.3080 14.79930593 44211
KUIPER-00170            
1 65783U 25217X   26198.24469740  .00001004  00000+0  16063-3 0  9991
2 65783  51.8979 185.1830 0000549  61.4350 298.6668 14.79930542 44134
KUIPER-00172            
1 65785U 25217Z   26197.35190600  .00001278  00000+0  19662-3 0  9991
2 65785  51.8987 171.6609 0000885  86.7274 273.3789 14.79938257 44244
KUIPER-00173            
1 65786U 25217AA  26197.27084470  .00002431  00000+0  34776-3 0  9995
2 65786  51.9004 184.5270 0000635  72.8557 287.2475 14.79931938 44050
KUIPER-00174            
1 65787U 25217AB  26197.95157334  .00001925  00000+0  28158-3 0  9995
2 65787  51.9005 176.5667 0000694  54.8034 305.2994 14.79919717 44225
KUIPER-00176            
1 65788U 25217AC  26198.00293687  .00001022  00000+0  16310-3 0  9990
2 65788  51.8991 191.2726 0000463  69.0881 291.0131 14.79928290 44020
KUIPER-00101            
1 65947U 25228A   26198.21758352  .00001468  00000+0  22152-3 0  9992
2 65947  51.8975 147.7813 0000701  78.6013 281.5028 14.79935824 42411
KUIPER-00113            
1 65948U 25228B   26198.25674966  .00000516  00000+0  96728-4 0  9999
2 65948  51.8992 142.6284 0000837  66.5136 293.5914 14.79931289 42484
